{"fetched_at":"2026-07-07T07:58:41.131Z","source":"https://celestrak.org/NORAD/elements/gp.php?NAME=LEGION&FORMAT=JSON","constellation":"maxar-legion","records":[{"OBJECT_NAME":"LEGION 1","OBJECT_ID":"2024-081A","EPOCH":"2026-07-06T19:42:16.069248","CLASSIFICATION_TYPE":"U","MEAN_MOTION":15.16805985,"ECCENTRICITY":0.0007855,"INCLINATION":97.5009,"RA_OF_ASC_NODE":265.4696,"ARG_OF_PERICENTER":304.5713,"MEAN_ANOMALY":55.4779,"EPHEMERIS_TYPE":0,"NORAD_CAT_ID":59625,"ELEMENT_SET_NO":999,"REV_AT_EPOCH":12051,"BSTAR":0.00018095,"MEAN_MOTION_DOT":0.0000349,"MEAN_MOTION_DDOT":0},{"OBJECT_NAME":"LEGION 2","OBJECT_ID":"2024-081B","EPOCH":"2026-07-06T18:50:50.892000","CLASSIFICATION_TYPE":"U","MEAN_MOTION":15.16783929,"ECCENTRICITY":0.0009872,"INCLINATION":97.501,"RA_OF_ASC_NODE":265.5313,"ARG_OF_PERICENTER":266.8631,"MEAN_ANOMALY":93.1473,"EPHEMERIS_TYPE":0,"NORAD_CAT_ID":59626,"ELEMENT_SET_NO":999,"REV_AT_EPOCH":12051,"BSTAR":0.00016761,"MEAN_MOTION_DOT":0.00003227,"MEAN_MOTION_DDOT":0},{"OBJECT_NAME":"LEGION 3","OBJECT_ID":"2024-146A","EPOCH":"2026-07-06T18:26:13.820928","CLASSIFICATION_TYPE":"U","MEAN_MOTION":15.15620053,"ECCENTRICITY":0.0008849,"INCLINATION":45.002,"RA_OF_ASC_NODE":285.5565,"ARG_OF_PERICENTER":290.1481,"MEAN_ANOMALY":69.8446,"EPHEMERIS_TYPE":0,"NORAD_CAT_ID":60452,"ELEMENT_SET_NO":999,"REV_AT_EPOCH":10499,"BSTAR":0.00014668,"MEAN_MOTION_DOT":0.00002573,"MEAN_MOTION_DDOT":0},{"OBJECT_NAME":"LEGION 4","OBJECT_ID":"2024-146B","EPOCH":"2026-07-06T20:02:34.077696","CLASSIFICATION_TYPE":"U","MEAN_MOTION":15.16196185,"ECCENTRICITY":0.0011568,"INCLINATION":45.0022,"RA_OF_ASC_NODE":17.08,"ARG_OF_PERICENTER":59.577,"MEAN_ANOMALY":300.625,"EPHEMERIS_TYPE":0,"NORAD_CAT_ID":60453,"ELEMENT_SET_NO":999,"REV_AT_EPOCH":10385,"BSTAR":0.00016321,"MEAN_MOTION_DOT":0.00002944,"MEAN_MOTION_DDOT":0},{"OBJECT_NAME":"LEGION 5","OBJECT_ID":"2025-025A","EPOCH":"2026-07-06T12:09:35.030880","CLASSIFICATION_TYPE":"U","MEAN_MOTION":15.16037234,"ECCENTRICITY":0.000853,"INCLINATION":44.9999,"RA_OF_ASC_NODE":197.8135,"ARG_OF_PERICENTER":259.3085,"MEAN_ANOMALY":100.6834,"EPHEMERIS_TYPE":0,"NORAD_CAT_ID":62900,"ELEMENT_SET_NO":999,"REV_AT_EPOCH":7742,"BSTAR":0.00016805,"MEAN_MOTION_DOT":0.00003024,"MEAN_MOTION_DDOT":0},{"OBJECT_NAME":"LEGION 6","OBJECT_ID":"2025-025B","EPOCH":"2026-07-06T04:10:46.308576","CLASSIFICATION_TYPE":"U","MEAN_MOTION":15.1564564,"ECCENTRICITY":0.00104453,"INCLINATION":45,"RA_OF_ASC_NODE":108.7162,"ARG_OF_PERICENTER":230.8134,"MEAN_ANOMALY":129.1817,"EPHEMERIS_TYPE":0,"NORAD_CAT_ID":62901,"ELEMENT_SET_NO":999,"REV_AT_EPOCH":7851,"BSTAR":0.00024551243,"MEAN_MOTION_DOT":0.00004491,"MEAN_MOTION_DDOT":0}]}
