LEGION 1                
1 59625U 24081A   26187.82101932  .00003490  00000+0  18095-3 0  9993
2 59625  97.5009 265.4696 0007855 304.5713  55.4779 15.16805985120519
LEGION 2                
1 59626U 24081B   26187.78531125  .00003227  00000+0  16761-3 0  9996
2 59626  97.5010 265.5313 0009872 266.8631  93.1473 15.16783929120512
LEGION 3                
1 60452U 24146A   26187.76821552  .00002573  00000+0  14668-3 0  9998
2 60452  45.0020 285.5565 0008849 290.1481  69.8446 15.15620053104998
LEGION 4                
1 60453U 24146B   26187.83511664  .00002944  00000+0  16321-3 0  9997
2 60453  45.0022  17.0800 0011568  59.5770 300.6250 15.16196185103859
LEGION 5                
1 62900U 25025A   26187.50665545  .00003024  00000+0  16805-3 0  9992
2 62900  44.9999 197.8135 0008530 259.3085 100.6834 15.16037234 77429
LEGION 6                
1 62901U 25025B   26187.17414709  .00004491  00000+0  24551-3 0  9996
2 62901  45.0000 108.7162 0010445 230.8134 129.1817 15.15645640 78516
